[
    {
        "Altitude(m)": 567125.841185939,
        "Argument of Periapsis(deg)": -0.022603160782972403,
        "Eccentricity": 0.0,
        "Inclination(deg)": 97.0,
        "Latitude(deg)": 29.231673725649156,
        "Longitude(deg)": -76.26324553064312,
        "Mean Anomaly(deg)": 29.445243269187465,
        "RAAN(deg)": 30.005947053618513,
        "Satellite Name": "Starlink Shell 3 1699",
        "Satellite Number": 1699,
        "Semi-Major Axis(m)": 6938478.169268562,
        "Time(s)": 570
    },
    {
        "Altitude(m)": 567224.3349261177,
        "Argument of Periapsis(deg)": -0.02299970746337543,
        "Eccentricity": 0.0,
        "Inclination(deg)": 97.0,
        "Latitude(deg)": 29.85330171065624,
        "Longitude(deg)": -76.40545731924148,
        "Mean Anomaly(deg)": 30.070719466892474,
        "RAAN(deg)": 30.006051387892512,
        "Satellite Name": "Starlink Shell 3 1699",
        "Satellite Number": 1699,
        "Semi-Major Axis(m)": 6938478.169268562,
        "Time(s)": 580
    },
    {
        "Altitude(m)": 567325.409741043,
        "Argument of Periapsis(deg)": -0.023396254143778456,
        "Eccentricity": 0.0,
        "Inclination(deg)": 97.0,
        "Latitude(deg)": 30.47479083527877,
        "Longitude(deg)": -76.54891865327599,
        "Mean Anomaly(deg)": 30.696195664597536,
        "RAAN(deg)": 30.00615572216653,
        "Satellite Name": "Starlink Shell 3 1699",
        "Satellite Number": 1699,
        "Semi-Major Axis(m)": 6938478.169268562,
        "Time(s)": 590
    },
    {
        "Altitude(m)": 567428.9918022542,
        "Argument of Periapsis(deg)": -0.023792800824181483,
        "Eccentricity": 0.0,
        "Inclination(deg)": 97.0,
        "Latitude(deg)": 31.09613718403723,
        "Longitude(deg)": -76.69367722449223,
        "Mean Anomaly(deg)": 31.32167186230259,
        "RAAN(deg)": 30.00626005644054,
        "Satellite Name": "Starlink Shell 3 1699",
        "Satellite Number": 1699,
        "Semi-Major Axis(m)": 6938478.169268562,
        "Time(s)": 600
    },
    {
        "Altitude(m)": 567535.0062561171,
        "Argument of Periapsis(deg)": -0.024189347504584503,
        "Eccentricity": 0.0,
        "Inclination(deg)": 97.0,
        "Latitude(deg)": 31.71733676486138,
        "Longitude(deg)": -76.83978253771117,
        "Mean Anomaly(deg)": 31.947148060007606,
        "RAAN(deg)": 30.006364390714545,
        "Satellite Name": "Starlink Shell 3 1699",
        "Satellite Number": 1699,
        "Semi-Major Axis(m)": 6938478.169268562,
        "Time(s)": 610
    },
    {
        "Altitude(m)": 567643.3772636774,
        "Argument of Periapsis(deg)": -0.02458589418498753,
        "Eccentricity": 0.0,
        "Inclination(deg)": 97.0,
        "Latitude(deg)": 32.338385503262614,
        "Longitude(deg)": -76.98728550673735,
        "Mean Anomaly(deg)": 32.572624257712654,
        "RAAN(deg)": 30.006468724988554,
        "Satellite Name": "Starlink Shell 3 1699",
        "Satellite Number": 1699,
        "Semi-Major Axis(m)": 6938478.169268562,
        "Time(s)": 620
    },
    {
        "Altitude(m)": 567754.0280410185,
        "Argument of Periapsis(deg)": -0.024982440865390556,
        "Eccentricity": 0.0,
        "Inclination(deg)": 97.0,
        "Latitude(deg)": 32.95927923609322,
        "Longitude(deg)": -77.1362397374849,
        "Mean Anomaly(deg)": 33.19810045541771,
        "RAAN(deg)": 30.006573059262564,
        "Satellite Name": "Starlink Shell 3 1699",
        "Satellite Number": 1699,
        "Semi-Major Axis(m)": 6938478.169268562,
        "Time(s)": 630
    },
    {
        "Altitude(m)": 567866.8808999476,
        "Argument of Periapsis(deg)": -0.025378987545793576,
        "Eccentricity": 0.0,
        "Inclination(deg)": 97.0,
        "Latitude(deg)": 33.580013704864506,
        "Longitude(deg)": -77.286700296372,
        "Mean Anomaly(deg)": 33.82357665312278,
        "RAAN(deg)": 30.00667739353657,
        "Satellite Name": "Starlink Shell 3 1699",
        "Satellite Number": 1699,
        "Semi-Major Axis(m)": 6938478.169268562,
        "Time(s)": 640
    },
    {
        "Altitude(m)": 567981.8572891136,
        "Argument of Periapsis(deg)": -0.025775534226196602,
        "Eccentricity": 0.0,
        "Inclination(deg)": 97.0,
        "Latitude(deg)": 34.20058454858875,
        "Longitude(deg)": -77.43872500740193,
        "Mean Anomaly(deg)": 34.44905285082784,
        "RAAN(deg)": 30.00678172781058,
        "Satellite Name": "Starlink Shell 3 1699",
        "Satellite Number": 1699,
        "Semi-Major Axis(m)": 6938478.169268562,
        "Time(s)": 650
    },
    {
        "Altitude(m)": 568098.8778354417,
        "Argument of Periapsis(deg)": -0.026172080906599626,
        "Eccentricity": 0.0,
        "Inclination(deg)": 97.0,
        "Latitude(deg)": 34.82098729611149,
        "Longitude(deg)": -77.59237407606484,
        "Mean Anomaly(deg)": 35.07452904853283,
        "RAAN(deg)": 30.006886062084593,
        "Satellite Name": "Starlink Shell 3 1699",
        "Satellite Number": 1699,
        "Semi-Major Axis(m)": 6938478.169268562,
        "Time(s)": 660
    },
    {
        "Altitude(m)": 568217.8623859356,
        "Argument of Periapsis(deg)": -0.026568627587002652,
        "Eccentricity": 0.0,
        "Inclination(deg)": 97.0,
        "Latitude(deg)": 35.44121735789437,
        "Longitude(deg)": -77.74770972163464,
        "Mean Anomaly(deg)": 35.70000524623789,
        "RAAN(deg)": 30.006990396358596,
        "Satellite Name": "Starlink Shell 3 1699",
        "Satellite Number": 1699,
        "Semi-Major Axis(m)": 6938478.169268562,
        "Time(s)": 670
    },
    {
        "Altitude(m)": 568338.730049773,
        "Argument of Periapsis(deg)": -0.02696517426740568,
        "Eccentricity": 0.0,
        "Inclination(deg)": 97.0,
        "Latitude(deg)": 36.061270017206205,
        "Longitude(deg)": -77.90479733138963,
        "Mean Anomaly(deg)": 36.325481443942955,
        "RAAN(deg)": 30.00709473063261,
        "Satellite Name": "Starlink Shell 3 1699",
        "Satellite Number": 1699,
        "Semi-Major Axis(m)": 6938478.169268562,
        "Time(s)": 680
    },
    {
        "Altitude(m)": 568461.399240688,
        "Argument of Periapsis(deg)": -0.0273617209478087,
        "Eccentricity": 0.0,
        "Inclination(deg)": 97.0,
        "Latitude(deg)": 36.68114042067757,
        "Longitude(deg)": -78.06370511173172,
        "Mean Anomaly(deg)": 36.95095764164802,
        "RAAN(deg)": 30.00719906490661,
        "Satellite Name": "Starlink Shell 3 1699",
        "Satellite Number": 1699,
        "Semi-Major Axis(m)": 6938478.169268562,
        "Time(s)": 690
    },
    {
        "Altitude(m)": 568585.7877196457,
        "Argument of Periapsis(deg)": -0.027758267628211725,
        "Eccentricity": 0.0,
        "Inclination(deg)": 97.0,
        "Latitude(deg)": 37.3008235681679,
        "Longitude(deg)": -78.2245037498565,
        "Mean Anomaly(deg)": 37.576433839353065,
        "RAAN(deg)": 30.007303399180625,
        "Satellite Name": "Starlink Shell 3 1699",
        "Satellite Number": 1699,
        "Semi-Major Axis(m)": 6938478.169268562,
        "Time(s)": 700
    },
    {
        "Altitude(m)": 568711.8126377319,
        "Argument of Periapsis(deg)": -0.028154814308614752,
        "Eccentricity": 0.0,
        "Inclination(deg)": 97.0,
        "Latitude(deg)": 37.92031430189057,
        "Longitude(deg)": -78.38726759969902,
        "Mean Anomaly(deg)": 38.20191003705807,
        "RAAN(deg)": 30.007407733454635,
        "Satellite Name": "Starlink Shell 3 1699",
        "Satellite Number": 1699,
        "Semi-Major Axis(m)": 6938478.169268562,
        "Time(s)": 710
    },
    {
        "Altitude(m)": 568839.3905792807,
        "Argument of Periapsis(deg)": -0.02855136098901778,
        "Eccentricity": 0.0,
        "Inclination(deg)": 97.0,
        "Latitude(deg)": 38.53960729473681,
        "Longitude(deg)": -78.55207436734287,
        "Mean Anomaly(deg)": 38.82738623476308,
        "RAAN(deg)": 30.00751206772864,
        "Satellite Name": "Starlink Shell 3 1699",
        "Satellite Number": 1699,
        "Semi-Major Axis(m)": 6938478.169268562,
        "Time(s)": 720
    },
    {
        "Altitude(m)": 568968.4376052049,
        "Argument of Periapsis(deg)": -0.028947907669420805,
        "Eccentricity": 0.0,
        "Inclination(deg)": 97.0,
        "Latitude(deg)": 39.15869703773231,
        "Longitude(deg)": -78.71900480978347,
        "Mean Anomaly(deg)": 39.452862432468194,
        "RAAN(deg)": 30.00761640200265,
        "Satellite Name": "Starlink Shell 3 1699",
        "Satellite Number": 1699,
        "Semi-Major Axis(m)": 6938478.169268562,
        "Time(s)": 730
    },
    {
        "Altitude(m)": 569098.8692964868,
        "Argument of Periapsis(deg)": -0.029344454349823825,
        "Eccentricity": 0.0,
        "Inclination(deg)": 97.0,
        "Latitude(deg)": 39.777577826554676,
        "Longitude(deg)": -78.88814396102923,
        "Mean Anomaly(deg)": 40.07833863017319,
        "RAAN(deg)": 30.007720736276664,
        "Satellite Name": "Starlink Shell 3 1699",
        "Satellite Number": 1699,
        "Semi-Major Axis(m)": 6938478.169268562,
        "Time(s)": 740
    },
    {
        "Altitude(m)": 569230.6007978562,
        "Argument of Periapsis(deg)": -0.029741001030226845,
        "Eccentricity": 0.0,
        "Inclination(deg)": 97.0,
        "Latitude(deg)": 40.39624374703494,
        "Longitude(deg)": -79.05958086102017,
        "Mean Anomaly(deg)": 40.703814827878254,
        "RAAN(deg)": 30.007825070550666,
        "Satellite Name": "Starlink Shell 3 1699",
        "Satellite Number": 1699,
        "Semi-Major Axis(m)": 6938478.169268562,
        "Time(s)": 750
    }
]